satname,norad_id,inclination_deg,eccentricity,mean_motion_rev_per_day,perigee_km,apogee_km,l1,l2
STARLINK-1316,45415,53.1545,0.000659,15.36887395,450.81690276698555,459.82339929204227,1 45415U 20019BH  26142.38108852  .00038607  00000+0  10597-2 0  9998,2 45415  53.1545 145.2182 0006590  20.6515 339.4754 15.36887395341307
STARLINK-1286,45417,53.0454,0.000127,15.62132493,380.6398067557593,382.3567541169896,1 45417U 20019BK  26142.75002315  .00090329  00000+0  10054-2 0  9995,2 45417  53.0454 133.1172 0001270 103.7792 235.8827 15.62132493  5962
STARLINK-1308,45419,53.0468,0.0008366,15.63761607,371.15152732281695,382.45389244539456,1 45419U 20019BM  26142.41536108  .00078592  00000+0  82152-3 0  9999,2 45419  53.0468 154.3725 0008366 354.5126   5.5795 15.63761607341165
STARLINK-1329,45531,53.0428,0.0005003,15.70862583,353.06121177315435,359.7998200295651,1 45531U 20025A   26142.54470619  .00054835  00000+0  43296-3 0  9999,2 45531  53.0428  78.3179 0005003  82.0123 278.1462 15.70862583337021
STARLINK-1338,45532,53.0444,0.0004606,15.66008282,367.2321623534717,373.4488598366934,1 45532U 20025B   26142.13392039  .00040602  00000+0  39305-3 0  9997,2 45532  53.0444  86.3689 0004606  55.2626 304.8822 15.66008282336875
STARLINK-1350,45535,53.0725,0.0001629,15.37835726,451.3978426218082,453.6232675952633,1 45535U 20025E   26142.00764233  .00009173  00000+0  25317-3 0  9991,2 45535  53.0725  48.3328 0001629  72.4221 287.6959 15.37835726337433
STARLINK-1362,45538,53.1574,0.0003773,15.35337312,457.33877037178536,462.4987672549323,1 45538U 20025H   26142.47430326 -.00106977  00000+0 -31047-2 0  9996,2 45538  53.1574 116.9963 0003773  75.9370 284.2053 15.35337312336490
STARLINK-1368,45540,53.1572,0.0004815,15.3567033,455.6381068975579,462.22220256756646,1 45540U 20025K   26142.22769663  .00035451  00000+0  10134-2 0  9991,2 45540  53.1572 118.5232 0004815  60.3634 299.7848 15.35670330336445
STARLINK-1371,45542,53.0455,0.0006656,15.58913359,386.29537641824936,395.30618639285785,1 45542U 20025M   26142.16471182  .00073453  00000+0  92712-3 0  9999,2 45542  53.0455  95.1147 0006656  60.0801 300.0871 15.58913359336751
STARLINK-1372,45543,53.1585,0.0004368,15.36222722,454.30536856988965,460.276798543684,1 45543U 20025N   26142.64731134  .00037553  00000+0  10538-2 0  9995,2 45543  53.1585 116.1155 0004368  54.2499 305.8910 15.36222722335610
STARLINK-1373,45544,53.0459,0.0004406,15.67758666,362.34534678862656,368.2876780237584,1 45544U 20025P   26142.55432970  .00046085  00000+0  41481-3 0  9994,2 45544  53.0459  89.7582 0004406  34.4673 325.6628 15.67758666336865
STARLINK-1327,45555,53.0426,0.0005266,15.6543019,368.4471995007234,375.5564457086912,1 45555U 20025AA  26142.50732554  .00039992  00000+0  39623-3 0  9996,2 45555  53.0426  66.8665 0005266  39.0850 321.0545 15.65430190337172
STARLINK-1356,45564,53.0456,0.0003593,15.55619058,397.9181892509732,402.789212668682,1 45564U 20025AK  26142.53605332  .00088609  00000+0  12616-2 0  9993,2 45564  53.0456  79.2311 0003593  47.0720 313.0591 15.55619058337002
STARLINK-1357,45565,53.0462,0.0007613,15.67300343,361.49630755668113,371.76589146499646,1 45565U 20025AL  26142.13750290  .00045990  00000+0  42134-3 0  9999,2 45565  53.0462  38.8192 0007613  73.3163 286.8688 15.67300343337548
STARLINK-1361,45567,53.0438,0.0001771,15.59348763,388.34214419982254,390.73925564113415,1 45567U 20025AN  26142.72438961  .00081398  00000+0  10097-2 0  9998,2 45567  53.0438  76.6112 0001771  49.9750 310.1417 15.59348763337062
STARLINK-1363,45568,53.03,0.0005043,16.0769624,249.82648820091072,256.51482510341066,1 45568U 20025AP  26142.53818365  .00508271  13785-3  61124-3 0  9998,2 45568  53.0300  22.1087 0005043 235.9433 124.1121 16.07696240337794
STARLINK-1366,45569,53.0325,0.0002527,16.0014926,272.3240036782872,275.68599624506896,1 45569U 20025AQ  26142.00003472  .00292237  47050-4  55726-3 0  9992,2 45569  53.0325  27.1827 0002527 242.2212 164.1599 16.00149260  5679
STARLINK-1376,45570,53.1561,0.0005602,15.36577072,452.41154647537496,460.06878265055184,1 45570U 20025AR  26142.56276750  .00036735  00000+0  10194-2 0  9993,2 45570  53.1561  92.9530 0005602  56.7204 303.4335 15.36577072336836
STARLINK-1320,45572,53.0444,0.0004254,15.81872374,322.2943012208534,327.99745429324867,1 45572U 20025AT  26142.53320113  .00106799  00000+0  51339-3 0  9990,2 45572  53.0444 337.7973 0004254 262.3153  97.7386 15.81872374338449
STARLINK-1321,45573,53.0432,0.0005332,15.60186466,383.5107592331178,390.7252271578609,1 45573U 20025AU  26142.48745212  .00047349  00000+0  57368-3 0  9999,2 45573  53.0432  61.7753 0005332  71.9026 288.2567 15.60186466336946
STARLINK-1331,45578,53.0469,0.0006122,15.60131545,383.13497657426433,391.4185491855342,1 45578U 20025AZ  26142.70126953  .00078403  00000+0  94402-3 0  9999,2 45578  53.0469  67.6085 0006122  54.5048 305.6535 15.60131545337198
STARLINK-1333,45580,53.1574,0.0003452,15.3361569,462.6731051308361,467.3976313338635,1 45580U 20025BB  26142.57854940  .00038579  00000+0  11757-2 0  9992,2 45580  53.1574  94.0426 0003452  77.0082 283.1306 15.33615690336826
STARLINK-1335,45581,53.1546,0.0004565,15.3510857,457.4761484168266,463.71991350009193,1 45581U 20025BC  26142.55978471  .00039153  00000+0  11377-2 0  9994,2 45581  53.1546  91.0388 0004565  71.3605 288.7893 15.35108570336855
STARLINK-1337,45582,53.0472,0.0007219,15.71843111,348.76984521002396,358.48916969348375,1 45582U 20025BD  26142.74274801  .00056858  00000+0  43026-3 0  9990,2 45582  53.0472  58.1091 0007219  61.0097 299.1643 15.71843111337316
STARLINK-1347,45586,53.0396,0.0004762,15.66509308,365.6885574830103,372.1144369477588,1 45586U 20025BH  26141.97413369  .00043285  00000+0  41020-3 0  9994,2 45586  53.0396  31.7348 0004762  86.8387 273.3173 15.66509308337610
STARLINK-1364,45589,53.045,0.0005271,15.6094912,381.34941473182243,388.4790233269241,1 45589U 20025BL  26142.49297249  .00039779  00000+0  46953-3 0  9995,2 45589  53.0450  65.8816 0005271  34.9455 325.1903 15.60949120337181
STARLINK-1365,45590,53.0462,0.0005235,15.56195384,395.13235640691255,402.2276838269745,1 45590U 20025BM  26142.57513332  .00073622  00000+0  10289-2 0  9997,2 45590  53.0462  98.4283 0005235  34.2750 325.8597 15.56195384336755
STARLINK-1443,45660,53.1352,0.0004722,15.30988621,469.62635863423475,476.09644152326837,1 45660U 20035D   26142.54570720  .00024846  00000+0  82763-3 0  9998,2 45660  53.1352  82.6392 0004722  51.2317 308.9105 15.30988621330056
STARLINK-1446,45663,53.0231,0.0004295,15.46460112,424.168352441312,430.014043463354,1 45663U 20035G   26142.70204488  .00020944  00000+0  42323-3 0  9997,2 45663  53.0231   6.8698 0004295 123.2227 236.9191 15.46460112331116
STARLINK-1448,45665,53.0447,0.0007162,15.66018544,365.4777910787252,375.1442680362634,1 45665U 20035J   26142.77124816  .00044471  00000+0  42931-3 0  9998,2 45665  53.0447  51.8171 0007162  51.7276 308.4382 15.66018544330484
STARLINK-1451,45668,53.0511,0.0002834,15.13372477,523.9673972845058,527.8806190639398,1 45668U 20035M   26142.58708294  .00018178  00000+0  10214-2 0  9991,2 45668  53.0511  91.4849 0002834  65.4517 294.6770 15.13372477329926
STARLINK-1452,45669,53.0269,5.43e-05,15.55631713,399.94886903239603,400.68500913018033,1 45669U 20035N   26142.09942984  .00075085  00000+0  10716-2 0  9991,2 45669  53.0269  29.0520 0000543 181.6222 178.4787 15.55631713330756
STARLINK-1453,45670,53.0415,0.0002715,15.66455861,367.223104998131,370.8868302365463,1 45670U 20035P   26142.74292850  .00048545  00000+0  46024-3 0  9998,2 45670  53.0415  12.2978 0002715 136.8629 223.2599 15.66455861330938
STARLINK-1454,45671,53.0442,0.000319,15.6475601,371.78664954936085,376.0944750341032,1 45671U 20035Q   26142.76071719  .00043165  00000+0  43881-3 0  9991,2 45671  53.0442  52.9242 0003190  39.7978 320.3270 15.64756010330461
STARLINK-1456,45673,53.0425,0.0006593,15.62852563,374.9665690793863,383.8770861494786,1 45673U 20035S   26142.20424852  .00044698  00000+0  48899-3 0  9998,2 45673  53.0425  50.0865 0006593  89.2673 270.9096 15.62852563330471
STARLINK-1458,45675,53.0475,0.0005169,15.53784505,402.1816672175428,409.19478573667584,1 45675U 20035U   26142.06623668  .00079899  00000+0  12182-2 0  9996,2 45675  53.0475  64.2444 0005169  45.3998 314.7433 15.53784505330224
STARLINK-1460,45676,53.1586,0.0004328,15.33418596,462.65975655195143,468.58371411325606,1 45676U 20035V   26142.55232810  .00031729  00000+0  97580-3 0  9992,2 45676  53.1586  81.3340 0004328  84.4733 275.6762 15.33418596330032
STARLINK-1392,45677,53.1542,0.0003534,15.36597679,453.7638141657317,458.5943087579735,1 45677U 20035W   26142.53930774  .00039337  00000+0  10900-2 0  9998,2 45677  53.1542  80.4086 0003534  90.5208 269.6200 15.36597679330083
STARLINK-1394,45679,53.0419,0.0007248,15.62639306,375.13830250737374,384.93495099671236,1 45679U 20035Y   26142.71532322  .00060008  00000+0  65857-3 0  9998,2 45679  53.0419  37.8299 0007248  99.2613 260.9221 15.62639306330687
STARLINK-1402,45685,53.0427,0.000672,15.55822914,395.2068265263488,404.3163222103003,1 45685U 20035AE  26142.71125126  .00063113  00000+0  89613-3 0  9991,2 45685  53.0427  27.8191 0006720 119.2222 240.9461 15.55822914330838
STARLINK-1404,45686,53.1575,0.0005119,15.42438138,435.4263640574309,442.4056629326469,1 45686U 20035AF  26142.07870906  .00042260  00000+0  96589-3 0  9994,2 45686  53.1575  64.9295 0005119 100.9569 259.2013 15.42438138330263
STARLINK-1413,45689,53.1575,0.0003222,15.33395712,463.48474381415326,467.8949058200669,1 45689U 20035AJ  26142.19986698  .00036668  00000+0  11261-2 0  9994,2 45689  53.1575  67.6197 0003222 102.7116 257.4247 15.33395712330155
STARLINK-1417,45693,53.0514,0.0006222,15.15909946,513.926512073871,522.5083355188435,1 45693U 20035AN  26142.51597503  .00019767  00000+0  10323-2 0  9997,2 45693  53.0514  78.7681 0006222  83.4421 276.7281 15.15909946330084
